[{"OBJECT_NAME":"IRIDIUM 180","OBJECT_ID":"2019-002A","EPOCH":"2026-03-09T22:12:10.971936","MEAN_MOTION":14.34217842,"ECCENTRICITY":0.00022889,"INCLINATION":86.3973,"RA_OF_ASC_NODE":35.0663,"ARG_OF_PERICENTER":84.9653,"MEAN_ANOMALY":275.1804,"EPHEMERIS_TYPE":0,"CLASSIFICATION_TYPE":"U","NORAD_CAT_ID":43922,"ELEMENT_SET_NO":999,"REV_AT_EPOCH":37476,"BSTAR":6.536861e-6,"MEAN_MOTION_DOT":3.8e-7,"MEAN_MOTION_DDOT":0},{"OBJECT_NAME":"COSMOS 1269","OBJECT_ID":"1981-041A","EPOCH":"2026-03-09T17:22:04.606752","MEAN_MOTION":14.3310322,"ECCENTRICITY":0.00086332,"INCLINATION":74.055,"RA_OF_ASC_NODE":187.1532,"ARG_OF_PERICENTER":78.255,"MEAN_ANOMALY":281.9569,"EPHEMERIS_TYPE":0,"CLASSIFICATION_TYPE":"U","NORAD_CAT_ID":12442,"ELEMENT_SET_NO":999,"REV_AT_EPOCH":34173,"BSTAR":8.5332573e-5,"MEAN_MOTION_DOT":2.08e-6,"MEAN_MOTION_DDOT":0}]
